ONEWEB-0387             
1 49313U 21090AL  22212.58334491 -.00047852  00000+0 -96272-1 0  9992
2 49313  87.9810 196.2231 0002221  99.4301 133.7327 13.34520206  1308
ONEWEB-0388             
1 49314U 21090AM  22212.58334491 -.00021907  00000+0 -54871-1 0  9995
2 49314  87.9193 226.4766 0002072  87.8983 100.4825 13.19741935  1304
ONEWEB-0389             
1 50469U 21132A   22212.91667824  .00000013  00000+0  00000+0 0  9997
2 50469  87.9048 287.3334 0001688 144.8327 244.9427 13.18533960 32864
ONEWEB-0390             
1 50470U 21132B   22212.58334491  .00045911  00000+0  11773+0 0  9998
2 50470  87.9054 287.3968 0002106  74.0434 168.6988 13.17586434  1307
ONEWEB-0391             
1 50471U 21132C   22212.58334491  .00044142  00000+0  11328+0 0  9990
2 50471  87.9028 287.3713 0000807 108.5385 124.8514 13.17546571  1308
ONEWEB-0392             
1 50472U 21132D   22212.91667824 -.00124638  00000+0 -32527+0 0  9992
2 50472  87.9030 287.3302 0001142 109.1481  55.3290 13.17686556 32898
ONEWEB-0393             
1 50473U 21132E   22212.91667824  .00000013  00000+0  00000+0 0  9992
2 50473  87.9163 287.3302 0001391 106.9603  21.5173 13.21504029 32886
ONEWEB-0394             
1 50474U 21132F   22212.91667824 -.00019594  00000+0 -19099-2 0  9990
2 50474  87.2226 279.7184 0000452 102.3684 207.2213 14.92720936 33660
ONEWEB-0395             
1 50475U 21132G   22212.58334491  .00034550  00000+0  97121-1 0  9993
2 50475  87.9008 302.6534 0001844  90.6625 359.6617 13.11392582  1309
ONEWEB-0396             
1 50476U 21132H   22212.58334491  .00057476  00000+0  55348-2 0  9992
2 50476  87.2258 279.9203 0002799 108.1549 335.2282 14.92680384  1307
ONEWEB-0397             
1 50477U 21132J   22212.91667824 -.00020324  00000+0 -19824-2 0  9992
2 50477  87.2272 279.8266 0001439 182.6998  84.0723 14.92694841 33663
ONEWEB-0398             
1 50478U 21132K   22212.58334491  .00032265  00000+0  90703-1 0  9996
2 50478  87.8913 302.6784 0002012  79.0628 164.9127 13.11403644  1300
ONEWEB-0399             
1 50479U 21132L   22212.58334491  .00030989  00000+0  87133-1 0  9991
2 50479  87.8906 302.6935 0001986 113.5357 193.9620 13.11398156  1304
ONEWEB-0400             
1 50480U 21132M   22212.91667824 -.00020651  00000+0 -20118-2 0  9997
2 50480  87.2218 279.6611 0002493 129.3248  75.4923 14.92742243 33684
ONEWEB-0401             
1 50481U 21132N   22212.58334491  .00056075  00000+0  54045-2 0  9995
2 50481  87.2238 279.8616 0000919  87.7139 337.4262 14.92656057  1309
ONEWEB-0402             
1 50482U 21132P   22212.91667824 -.00020865  00000+0 -20325-2 0  9996
2 50482  87.2247 279.7555 0000978 112.3602  94.5994 14.92748544 33677
ONEWEB-0403             
1 50483U 21132Q   22212.91667824 -.00020052  00000+0 -19551-2 0  9994
2 50483  87.2220 279.6866 0002296  67.8300 197.6245 14.92708173 33686
ONEWEB-0404             
1 50484U 21132R   22212.58334491  .00033956  00000+0  95458-1 0  9993
2 50484  87.8939 302.6628 0001074 105.7908 323.2959 13.11390539  1308
ONEWEB-0405             
1 50485U 21132S   22212.91667824 -.00024773  00000+0 -24143-2 0  9993
2 50485  87.2997 281.4833 0004146 123.5055  64.5917 14.92737540 33674
ONEWEB-0406             
1 50486U 21132T   22212.58334491  .00057909  00000+0  55734-2 0  9993
2 50486  87.2262 279.9223 0004235 156.4256 289.3097 14.92696900  1307
ONEWEB-0407             
1 50487U 21132U   22212.91667824 -.00019736  00000+0 -19238-2 0  9997
2 50487  87.2178 279.5855 0004492 136.4997 211.1769 14.92712265 33684
ONEWEB-0409             
1 50488U 21132V   22212.58334491  .00033043  00000+0  92895-1 0  9996
2 50488  87.8779 302.7102 0001367  88.9225 313.7843 13.11393368  1300
ONEWEB-0412             
1 50489U 21132W   22212.91667824 -.00020740  00000+0 -20198-2 0  9993
2 50489  87.2232 279.7218 0002309 130.7392  85.0319 14.92756507 33735
ONEWEB-0413             
1 50490U 21132X   22212.58334491  .00060016  00000+0  57708-2 0  9994
2 50490  87.2170 279.6552 0000524  76.4184 232.7916 14.92728187  1305
ONEWEB-0414             
1 50491U 21132Y   22212.91667824 -.00019695  00000+0 -19188-2 0  9990
2 50491  87.2209 279.6693 0004227 141.6806 193.0676 14.92733421 33680
ONEWEB-0417             
1 50492U 21132Z   22212.58334491  .00054904  00000+0  52888-2 0  9999
2 50492  87.2240 279.8735 0004665 149.4774 248.5214 14.92677223  1306
ONEWEB-0418             
1 50493U 21132AA  22212.91667824 -.00019914  00000+0 -19368-2 0  9996
2 50493  87.2278 279.8583 0001890 179.0396 123.1500 14.92807769 33665
ONEWEB-0419             
1 50494U 21132AB  22212.91667824 -.00020147  00000+0 -19628-2 0  9996
2 50494  87.2160 279.5312 0004469 136.2149 355.7116 14.92733885 33684
ONEWEB-0420             
1 50495U 21132AC  22212.58334491  .00063215  00000+0  60786-2 0  9993
2 50495  87.2104 279.4900 0000029  77.7218  63.2097 14.92708712  1303
ONEWEB-0421             
1 50496U 21132AD  22212.58334491  .00054954  00000+0  53002-2 0  9997
2 50496  87.2135 279.5752 0001394  32.7617   3.9101 14.92633662  1302
ONEWEB-0424             
1 50497U 21132AE  22212.58334491  .00057899  00000+0  55535-2 0  9992
2 50497  87.2308 280.0429 0002581 152.0319 179.1980 14.92836123  1305
ONEWEB-0426             
1 50498U 21132AF  22212.91667824 -.00019835  00000+0 -19341-2 0  9994
2 50498  87.2184 279.5854 0002472 104.6477 161.2122 14.92704133 33681
ONEWEB-0427             
1 50499U 21132AG  22212.91667824 -.00019937  00000+0 -19406-2 0  9990
2 50499  87.2115 279.4033 0004135 113.0947  42.3874 14.92770842 33704
ONEWEB-0429             
1 50500U 21132AH  22212.91667824 -.00019546  00000+0 -19061-2 0  9996
2 50500  87.2153 279.4868 0000757 104.8914 164.8282 14.92701324 33693
ONEWEB-0430             
1 50501U 21132AJ  22212.91667824 -.00021126  00000+0 -20579-2 0  9990
2 50501  87.2288 279.8753 0003684 140.5786  55.6123 14.92745511 33659
ONEWEB-0432             
1 50502U 21132AK  22212.58334491  .00062921  00000+0  60511-2 0  9991
2 50502  87.2135 279.5747 0000835 299.5819 199.0478 14.92705479  1300
ONEWEB-0440             
1 50503U 21132AL  22212.91667824 -.00020346  00000+0 -19814-2 0  9995
2 50503  87.2174 279.5444 0001071 104.5872 106.5620 14.92757098 33687
ONEWEB-0450             
1 50504U 21132AM  22212.58334491  .00055303  00000+0  53294-2 0  9999
2 50504  87.2262 279.9305 0002339 141.8721 270.3451 14.92663901  1306
ONEWEB-0410             
1 51622U 22012A   22212.58334491  .00048357  00000+0  45140-2 0  9991
2 51622  87.1869 300.5835 0001796 129.2060 147.6104 14.93965006  1304
ONEWEB-0411             
1 51623U 22012B   22212.58334491  .00014808  00000+0  42321-1 0  9993
2 51623  87.8912 317.9595 0001560  80.3357 284.5818 13.10364682  1305
ONEWEB-0415             
1 51624U 22012C   22212.58334491  .00014742  00000+0  42130-1 0  9999
2 51624  87.8903 317.9419 0002142  83.1347 296.4925 13.10369180  1307
ONEWEB-0416             
1 51625U 22012D   22212.58334491  .00014711  00000+0  42045-1 0  9991
2 51625  87.8862 317.9400 0002000 101.7872 226.3423 13.10361680  1307
ONEWEB-0422             
1 51626U 22012E   22212.58334491  .00047786  00000+0  44560-2 0  9995
2 51626  87.2427 301.6768 0004576  88.4488  46.5098 14.94003859  1304
ONEWEB-0423             
1 51627U 22012F   22212.58334491  .00048733  00000+0  45532-2 0  9999
2 51627  87.1881 300.6146 0003031 107.9893 163.8797 14.93925518  1302
ONEWEB-0425             
1 51628U 22012G   22212.58334491  .00014000  00000+0  40019-1 0  9994
2 51628  87.8869 317.9433 0001635 119.8599 164.2859 13.10357653  1300
ONEWEB-0428             
1 51629U 22012H   22212.58334491  .00014810  00000+0  42326-1 0  9997
2 51629  87.8879 317.9416 0002543 106.7565 265.4888 13.10364183  1302
ONEWEB-0431             
1 51630U 22012J   22212.58334491  .00013131  00000+0  37536-1 0  9991
2 51630  87.8843 317.9119 0002745  86.7225 153.3219 13.10354546  1304
ONEWEB-0434             
1 51631U 22012K   22212.58334491  .00013735  00000+0  39259-1 0  9996
2 51631  87.8871 317.9248 0002487 103.3929 166.0823 13.10358128  1301
ONEWEB-0435             
1 51632U 22012L   22212.58334491  .00012868  00000+0  36786-1 0  9995
2 51632  87.8799 317.9062 0002844 105.1676 120.1894 13.10352171  1302
ONEWEB-0436             
1 51633U 22012M   22212.58334491  .00045869  00000+0  42800-2 0  9998
2 51633  87.1838 300.5356 0000874  95.0589 309.6510 14.93995137  1301
ONEWEB-0438             
1 51634U 22012N   22212.58334491  .00014476  00000+0  41373-1 0  9992
2 51634  87.8826 317.8969 0001742 107.3272 198.7579 13.10363856  1305
ONEWEB-0439             
1 51635U 22012P   22212.58334491  .00083444  00000+0  23697+0 0  9991
2 51635  87.8841 317.9266 0001904 101.1628 190.2424 13.10340865  1302
ONEWEB-0442             
1 51636U 22012Q   22212.58334491  .00047010  00000+0  43851-2 0  9998
2 51636  87.1817 300.4856 0004266  97.0579   7.2688 14.93995412  1308
ONEWEB-0443             
1 51637U 22012R   22212.58334491  .00045930  00000+0  42859-2 0  9995
2 51637  87.1838 300.5375 0002413 145.1933 255.7603 14.93990894  1306
ONEWEB-0444             
1 51638U 22012S   22212.58334491  .00014804  00000+0  42305-1 0  9997
2 51638  87.8874 317.9280 0002126 105.2677 230.3087 13.10370467  1305
ONEWEB-0445             
1 51639U 22012T   22212.58334491  .00012952  00000+0  37024-1 0  9992
2 51639  87.8840 317.9343 0001497  82.8967 149.7959 13.10355574  1304
ONEWEB-0446             
1 51640U 22012U   22212.58334491  .00014830  00000+0  42385-1 0  9997
2 51640  87.8879 317.9391 0001947  90.9445 252.0318 13.10365131  1309
ONEWEB-0448             
1 51641U 22012V   22212.58334491  .00014637  00000+0  41833-1 0  9990
2 51641  87.8869 317.9388 0002136 103.4052 217.4167 13.10362774  1307
ONEWEB-0449             
1 51642U 22012W   22212.58334491  .00014304  00000+0  40887-1 0  9990
2 51642  87.8877 317.9275 0001463 105.5932 193.2076 13.10358352  1301
